STARLINK-31094          
1 58593U 23200E   26068.62192101  .00000613  00000+0  32520-4 0  9996
2 58593  43.0018 168.9694 0001394 266.7261  93.3431 15.26740016123605
FLOCK 4G-25             
1 62646U 25009AP  26068.74572546  .00010373  00000+0  38902-3 0  9990
2 62646  97.4049 151.4141 0000828 316.3151  43.8023 15.27424196 63734
